LEMUR-2-ANNABANANA      
1 48923U 21059AW  23319.09614217  .00043029  00000+0  72476-3 0  9997
2 48923  97.5888 105.1414 0004721  76.6746 283.5032 15.51572744132908
LEMUR-2-JOHN-TREIRES    
1 48925U 21059AY  23319.40841152  .00507730  00000+0  17871-2 0  9995
2 48925  97.5996 110.3384 0004274 324.1917  35.9067 15.87933731133193
LEMUR-2-AC-CUBED        
1 48927U 21059BA  23319.35446317  .00079572  00000+0  11544-2 0  9994
2 48927  97.6069 105.7328 0005776  63.7300 296.4547 15.55547613132914
LEMUR-2-MERIMA          
1 48929U 21059BC  23319.36563720  .00127073  00000+0  13698-2 0  9997
2 48929  97.5843 106.8255 0004117  33.1344 327.0171 15.63255952133032
LEMUR-2-RAMONAMAE       
1 51021U 22002AP  23319.20771152  .00029373  00000+0  64742-3 0  9997
2 51021  97.4250  30.5179 0005171  83.9850 276.1988 15.43868876102101
LEMUR-2-KING-JULIEN     
1 51022U 22002AQ  23319.17845897  .00141980  00000+0  19532-2 0  9997
2 51022  97.4208  30.6850 0002440  58.4201 301.7292 15.56779860102128
LEMUR-2-ROHOVITHSA      
1 51036U 22002BE  23319.18312392  .00031622  00000+0  98473-3 0  9995
2 51036  97.4228  25.9817 0006821  80.5917 279.6096 15.33197291101808
LEMUR-2-MIRIWARI        
1 51054U 22002BY  23318.92576520  .00034826  00000+0  10337-2 0  9992
2 51054  97.4212  25.9357 0005572  79.4720 280.7151 15.34708130101784
LEMUR-2-DJIRANG         
1 51058U 22002CC  23319.12238815  .00035373  00000+0  10485-2 0  9993
2 51058  97.4182  25.9376 0005432  73.4329 286.7510 15.34748447101813
LEMUR-2-TENNYSONLILY    
1 52732U 22057A   23319.29218505  .00080539  00000+0  15538-2 0  9993
2 52732  97.5650  81.2455 0005162 202.2826 157.8200 15.47529433 81953
LEMUR-2-VANDENDRIES     
1 52733U 22057B   23319.30598642  .00031077  00000+0  90693-3 0  9998
2 52733  97.5441  77.6139 0005352 203.3861 156.7139 15.35268540 81788
LEMUR-2-KAREN B         
1 52736U 22057E   23319.30633691  .00107933  00000+0  17463-2 0  9993
2 52736  97.5507  81.1825 0004041 212.6942 147.4060 15.52436082 82017
LEMUR-2-HANCOM-1        
1 52740U 22057J   23318.57982334  .00034403  00000+0  10428-2 0  9992
2 52740  97.5652  78.3697 0006932 181.0771 179.0458 15.34039273 81683
LEMUR-2-MIMI1307        
1 52769U 22057AP  23319.10943350  .00074000  00000+0  21551-2 0  9994
2 52769  97.5648  79.1112 0007556 165.6206 194.5253 15.35095320 81786
LEMUR-2-PHILARI         
1 55013U 23001E   23318.89276074  .00036779  00000+0  13032-2 0  9992
2 55013  97.4564  17.8508 0007115 194.4124 165.6914 15.28990071 48027
LEMUR-2-DISCLAIMER      
1 55014U 23001F   23318.89027355  .00033818  00000+0  12379-2 0  9993
2 55014  97.4610  17.8761 0008039 203.3287 156.7589 15.27933746 48010
LEMUR-2-STEVEALBERS     
1 55017U 23001J   23318.89382247  .00029914  00000+0  11231-2 0  9998
2 55017  97.4543  17.4827 0007542 196.8587 163.2402 15.27127268 48004
LEMUR-2-EMMACULATE      
1 55037U 23001AE  23318.42723500  .00042193  00000+0  13270-2 0  9999
2 55037  97.4621  18.7011 0011342 188.5035 171.6016 15.32778003 48022
LEMUR-2-MMOLO           
1 55038U 23001AF  23318.40971856  .00012093  00000+0  44810-3 0  9998
2 55038  97.4636  18.6402 0013027 191.5072 168.5871 15.27707119 48016
LEMUR-2-FUENTETAJA-01   
1 55088U 23001CH  23318.90675165  .00035607  00000+0  12635-2 0  9997
2 55088  97.4641  18.6357 0012158 184.9732 175.1389 15.28903371 48050
LEMUR-2-ONREFLECTION    
1 56182U 23054E   23319.27241946  .00019182  00000+0  67397-3 0  9994
2 56182  97.3777 212.3017 0005851 205.0448 155.0509 15.29409573 33211
LEMUR-2-SPACEGUS        
1 56187U 23054K   23319.26880321  .00024106  00000+0  83270-3 0  9994
2 56187  97.3786 212.4757 0006208 180.2690 179.8549 15.29914687 33224
LEMUR-2-ROMEO-N-LEO     
1 56206U 23054AE  23319.27105146  .00072510  00000+0  16821-2 0  9991
2 56206  97.3719 213.9183 0007650 154.4274 205.7353 15.42104778 33324
LEMUR-2-EMBRIONOVIS     
1 56970U 23084AQ  23319.27105019  .00005669  00000+0  30156-3 0  9990
2 56970  97.5328  74.1451 0016188  42.0242 318.2228 15.15547610 23526
LEMUR-2-NAZIYAH         
1 56974U 23084AU  23319.31869637  .00018429  00000+0  88459-3 0  9999
2 56974  97.5220  74.3383 0013961  30.6439 329.5608 15.18831037 23556
LEMUR-2-AADAM-ALIYAH    
1 56977U 23084AX  23318.59247797  .00012513  00000+0  60228-3 0  9990
2 56977  97.5242  73.6609 0014463  34.4978 325.7192 15.18818272 23444
LEMUR-2-MANO            
1 57390U 23100E   23319.37181562  .00008128  00000+0  65128-3 0  9994
2 57390  99.4864 110.4252 0015892 269.8567  90.0830 15.00400747 18028
LEMUR-2-DEVERILL-M-T    
1 57391U 23100F   23319.40669767  .00006900  00000+0  55073-3 0  9991
2 57391  99.4682 110.5382 0011621 257.6195 102.3723 15.00675826 18031
